1 29601U 06052A   15152.36308309 -.00000052  00000-0  00000+0 0  9994
2 29601  56.7101  12.8701 0054557  32.5568 292.8089  2.00564093 62548
